TRANSPORTER-12 OBJECT AZ
1 62656U 25009AZ  26068.71026235  .00016057  00000+0  54903-3 0  9991
2 62656  97.3981 151.9913 0000987  45.3581 314.7740 15.30349724 63792
STARLINK-35388          
1 66466U 25262L   26068.06620256  .00030121  00000+0  10992-2 0  9993
2 66466  43.0094 299.4635 0003743 248.6118 111.4335 15.27590459 18818
